#cP2021  8 22  0  0  0.00000000      96 ORBIT IGb14 HLM  IGS
## 2172      0.00000000   900.00000000 59448 0.0000000000000
+   31   G01G02G03G04G05G06G07G08G09G10G12G13G14G15G16G17G18
+        G19G20G21G22G23G24G25G26G27G28G29G30G31G32  0  0  0
+          0  0  0  0  0  0  0  0  0  0  0  0  0  0  0  0  0
+          0  0  0  0  0  0  0  0  0  0  0  0  0  0  0  0  0
+          0  0  0  0  0  0  0  0  0  0  0  0  0  0  0  0  0
++         1  2  2  2  1  1  1  2  2  2  2  2  2  2  2  2  2
++         2  2  2  2  2  1  2  2  3  2  2  1  2  2  0  0  0
++         0  0  0  0  0  0  0  0  0  0  0  0  0  0  0  0  0
++         0  0  0  0  0  0  0  0  0  0  0  0  0  0  0  0  0
++         0  0  0  0  0  0  0  0  0  0  0  0  0  0  0  0  0
%c G  cc GPS ccc cccc cccc cccc cccc ccccc ccccc ccccc ccccc
%c cc cc ccc ccc cccc cccc cccc cccc ccccc ccccc ccccc ccccc
%f  1.2500000  1.025000000  0.00000000000  0.000000000000000
%f  0.0000000  0.000000000  0.00000000000  0.000000000000000
%i    0    0    0    0      0      0      0      0         0
%i    0    0    0    0      0      0      0      0         0
/* FINAL ORBIT COMBINATION FROM WEIGHTED AVERAGE OF:        
/* cod emr esa gfz grg jpl mit ngs sio                      
/* REFERENCED TO IGS TIME (IGST) AND TO WEIGHTED MEAN POLE: 
/* PCV:IGS14_2163 OL/AL:FES2004  NONE     Y  ORB:CMB CLK:CMB
*  2021  8 22  7 30  0.00000000
PG01  11546.749419 -21001.611313 -11342.102413    590.336883  7  5  4  75       
PG02 -20838.319733  12587.096149 -10050.546154   -627.824387  1  4  2  94       
PG03   5282.817636 -14120.515444 -21965.887823   -262.732000  7  5  5  83       
PG04   1774.021768 -24677.817103  -9567.082263   -204.081807  6  8  5  65       
PG05 -17983.075993   8221.141449  17646.121024    -51.907615  2  4  3 106       
PG06 -18537.320200    161.153403 -18984.596931     60.293126     5  2  88       
PG07  -2860.678824 -17158.557414  20303.941741    230.063120  3  5  4  84       
PG08   8406.474439 -17351.974229  18116.124861    -33.579742  5  5  6  70       
PG09  -7471.083131 -25442.863559   1212.069479   -359.412698  4  5  6  89       
PG10  22815.047614  11895.072250   7273.267089   -187.482332  3  6  4 102       
PG12  -6543.013784  13625.536650 -22085.230961    -86.389979  4  3  4  87       
PG13 -13287.458356   9690.843062  20684.596231    174.733584  4  4  5  66       
PG14 -22423.015960 -12658.693814   6615.742253     18.285124  6  6  3  84       
PG15  -6737.803732  18637.079852  17140.499470   -126.629271  5  5  1  90       
PG16  22314.410800  -1691.576422  14406.325241   -377.775304  2  7  4  86       
PG17 -12503.695464 -18815.224813 -13530.956357    493.099793  3  5  2  82       
PG18   4219.271078  15668.379344  20996.000073    330.444057  3  6  2  91       
PG19 -14771.942678 -10250.302556 -19877.456456     42.844557  4  6     80       
PG20 -25014.301211   2479.529439   8124.202202    519.527937     3  4  88       
PG21  16564.771131 -20226.450001  -1849.877654    138.586374  5  5  6  69       
PG22  12998.448380 -12153.187235 -19483.049309   -532.200598  7  6  2  70       
PG23  13968.175498  15519.619499  16431.278316     67.564168  6  7  4  92       
PG24 -13610.894113  21756.328610  -6224.759467    215.265719  3  4  2  77       
PG25   5789.813858  16524.831522 -20308.414716    195.336241  8  4  4  92       
PG26  26198.041615   3948.040794   3341.642393    125.473715  2  4  2  94       
PG27  13450.595385  -6795.672313  21658.104197   -181.892715  8  9  6  11       
PG28 -24260.056308 -10533.315277   1062.384478    515.395824  4  6  5  97       
PG29   3757.102368  26246.528382   -798.148673   -399.994707  2  8  4  53       
PG30 -13736.228010  -8566.814700  21152.869183   -464.842242  2  3  3  64       
PG31  20189.194786  -1542.733336 -17515.257516   -135.606633  4  3  4  67       
PG32  15105.928846  15251.758372 -15639.407338      5.880782  7  6  3  51       
*  2021  8 22  7 45  0.00000000
PG01  12470.700604 -21660.626589  -8737.464189    590.326710  7  5  4  82       
PG02 -20117.001438  11392.790392 -12485.876558   -627.826423     4  2  89       
PG03   7667.545349 -13468.397766 -21659.738485   -262.743825  7  5  5  73       
PG04   2281.246651 -23524.613790 -12047.950591   -204.082046  7  7  6  76       
PG05 -19842.229623   7642.713204  15853.160574    -51.908686  2  5  3 108       
PG06 -17011.569568  -1497.070498 -20299.989341     60.299125  2  6  2  79       
PG07  -1208.394464 -18616.628412  19083.938114    230.070128  3  4  4  88       
PG08   9148.539797 -15312.045492  19564.973691    -33.581827  5  4  5  55       
PG09  -7200.858126 -25504.509200  -1631.528495   -359.413488  4  5  5  81       
PG10  21838.585225  11837.003525   9903.482954   -187.489250  3  6  4  88       
PG12  -8855.618289  12809.905510 -21749.311777    -86.394741  4  2  4  81       
PG13 -13683.824249   7284.312452  21409.250706    174.738166  4  4  5  85       
PG14 -21482.275890 -12627.999937   9260.853679     18.277465  7  6  3  29       
PG15  -7735.527154  16737.110229  18616.753645   -126.626642  5  4     94       
PG16  23708.772881  -1024.926217  12140.001596   -377.781178  2  7  3  83       
PG17 -12637.741420 -20290.213150 -11138.399370    493.104783  4  5  1  83       
PG18   2476.271089  17245.086932  20008.107118    330.440736  3  6  3 100       
PG19 -15030.908636 -12365.551694 -18418.820432     42.849117  4  6     61       
PG20 -25763.617768   2076.910451   5443.410654    519.528377     3  4 103       
PG21  16878.545258 -20120.868294   1031.487123    138.588339  5  5  6  78       
PG22  15149.904793 -11655.533314 -18183.765397   -532.191818  6  5  2  82       
PG23  12006.419735  15210.889815  18169.703649     67.559632  6  7  3  98       
PG24 -14224.006469  21936.612957  -3473.245344    215.275192  4  4  2  76       
PG25   3530.222384  16010.332341 -21206.771626    195.341991  8  4  4  90       
PG26  26360.813328   4279.239892    554.373455    125.477697  2  4  2  87       
PG27  14150.410920  -4367.091561  21867.690588   -181.897667  8  8  7  62       
PG28 -23966.123633 -10676.782233   3932.573086    515.389426  4  6  5  75       
PG29   3518.640055  26037.447921  -3687.764533   -399.999953  3  8  4  54       
PG30 -12006.300758 -10271.344740  21424.189074   -464.845852  2  2  3  69       
PG31  18789.523894    -24.691846 -19039.103293   -135.608551  4  3  4  62       
PG32  15383.347318  16921.228512 -13541.090428      5.878218  7  6  4  79       
*  2021  8 22  8  0  0.00000000
PG01  13156.413209 -22141.855820  -5981.065215    590.316506  6  5  5  80       
PG02 -19297.953233   9943.556502 -14699.226511   -627.828358     5  2  96       
PG03  10030.762193 -12956.152641 -20983.953602   -262.755646  7  5  5  47       
PG04   2925.530205 -22141.492843 -14320.734262   -204.082280  7  7  6  82       
PG05 -21510.749661   7196.759053  13786.210770    -51.909536  2  5  4 104       
PG06 -15494.689291  -3335.819130 -21264.796159     60.305170  2  6     83       
PG07    269.505683 -20044.316374  17540.234080    230.076900  3  3  4  93       
PG08  10045.081432 -13179.323333  20673.925553    -33.584179  5  4  4  79       
PG09  -6826.585539 -25278.306631  -4447.027131   -359.414258  4  5  5  94       
PG10  20579.585585  11776.929924  12366.693287   -187.496224  3  6  4  89       
PG12 -11154.824202  12136.456542 -21047.038056    -86.399880  3  2  4  98       
PG13 -14218.505536   4842.985587  21760.166455    174.742183  4  5  5  68       
PG14 -20259.391290 -12576.817981  11747.003521     18.269839  6  5  2  90       
PG15  -8883.213265  14749.832200  19759.383653   -126.624351  5  3     99       
PG16  24878.404204   -513.697592   9666.950544   -377.786510  3  6  4  84       
PG17 -12778.643313 -21477.291722  -8549.986285    493.109698  4  5  2  84       
PG18    907.964058  18815.503303  18674.764340    330.437465  4  7  3 106       
PG19 -15367.698053 -14287.383528 -16651.547732     42.853512  4  6     78       
PG20 -26221.918971   1726.208016   2667.372494    519.528170     3  4  96       
PG21  16994.672435 -19772.263090   3894.604965    138.590425  5  5  6  76       
PG22  17157.825467 -11276.496325 -16565.217994   -532.183307  6  5  2  24       
PG23   9853.835349  14976.062259  19595.606994     67.555116  6  7  3 111       
PG24 -14638.989986  21892.786570   -660.708516    215.284665  4  4  2  79       
PG25   1165.896361  15600.267127 -21750.109837    195.347839  7  4  5  92       
PG26  26230.225322   4554.241418  -2242.281164    125.481639  2  4  1  85       
PG27  14979.591653  -1981.237662  21694.585527   -181.902693  8  8  7  81       
PG28 -23374.423672 -10739.803232   6734.897673    515.383454  4  5  5  92       
PG29   3187.237853  25527.696453  -6513.706729   -400.005166  3  8  4  89       
PG30 -10352.618192 -12066.676582  21329.357118   -464.849485  2  2  3  85       
PG31  17365.540708   1679.218642 -20242.201874   -135.610174  5  4  4  50       
PG32  15665.066901  18335.748565 -11210.160528      5.875606  7  6  4  74       
EOF
